{
  "type": "FeatureCollection",
  "features": [
    {
      "type": "Feature",
      "properties": {
        "norad_id": 29268,
        "name": "ARIRANG-2 (KOMPSAT-2)",
        "group": "resource",
        "lat": -66.12603533719938,
        "lon": -160.30034711219193,
        "alt_km": 676.6325661685996,
        "timestamp": "2025-12-19T10:50:00.848214+00:00",
        "meta_object_name": "ARIRANG-2 (KOMPSAT-2)",
        "meta_object_id": "2006-031A",
        "meta_epoch": "2025-12-19T00:21:07.111296",
        "meta_mean_motion": 14.64500276,
        "meta_eccentricity": 0.00132409,
        "meta_inclination": 97.8255,
        "meta_ra_of_asc_node": 181.1812,
        "meta_arg_of_pericenter": 287.6964,
        "meta_mean_anomaly": 223.8026,
        "meta_ephemeris_type": 0,
        "meta_classification_type": "U",
        "meta_norad_cat_id": 29268,
        "meta_element_set_no": 999,
        "meta_rev_at_epoch": 3510,
        "meta_bstar": 0.00010940633,
        "meta_mean_motion_dot": 5.35e-06,
        "meta_mean_motion_ddot": 0,
        "tle_line1": "1 29268U 06031A   25353.01466564  .00000535  00000+0  10941-3 0  9997",
        "tle_line2": "2 29268  97.8255 181.1812 0013240 287.6964 223.8026 14.64500276 35106"
      },
      "geometry": {
        "type": "Point",
        "coordinates": [
          -160.30034711219193,
          -66.12603533719938
        ]
      }
    },
    {
      "type": "Feature",
      "properties": {
        "norad_id": 29709,
        "name": "LAPAN-TUBSAT",
        "group": "resource",
        "lat": 18.01783674201792,
        "lon": -18.9171501004612,
        "alt_km": 604.2072592894629,
        "timestamp": "2025-12-19T10:50:00.848224+00:00",
        "meta_object_name": "LAPAN-TUBSAT",
        "meta_object_id": "2007-001A",
        "meta_epoch": "2025-12-18T23:26:13.838784",
        "meta_mean_motion": 14.85678119,
        "meta_eccentricity": 0.00134727,
        "meta_inclination": 98.1252,
        "meta_ra_of_asc_node": 343.2617,
        "meta_arg_of_pericenter": 55.5093,
        "meta_mean_anomaly": 304.7391,
        "meta_ephemeris_type": 0,
        "meta_classification_type": "U",
        "meta_norad_cat_id": 29709,
        "meta_element_set_no": 999,
        "meta_rev_at_epoch": 2439,
        "meta_bstar": 1.4726136e-05,
        "meta_mean_motion_dot": 7e-07,
        "meta_mean_motion_ddot": 0,
        "tle_line1": "1 29709U 07001A   25352.97654906  .00000070  00000+0  14726-4 0  9998",
        "tle_line2": "2 29709  98.1252 343.2617 0013472  55.5093 304.7391 14.85678119 24391"
      },
      "geometry": {
        "type": "Point",
        "coordinates": [
          -18.9171501004612,
          18.01783674201792
        ]
      }
    },
    {
      "type": "Feature",
      "properties": {
        "norad_id": 31113,
        "name": "HAIYANG-1B",
        "group": "resource",
        "lat": 23.317558228152112,
        "lon": -26.16916030985378,
        "alt_km": 778.0210108853962,
        "timestamp": "2025-12-19T10:50:00.848236+00:00",
        "meta_object_name": "HAIYANG-1B",
        "meta_object_id": "2007-010A",
        "meta_epoch": "2025-12-18T22:58:37.050528",
        "meta_mean_motion": 14.3096715,
        "meta_eccentricity": 0.00139689,
        "meta_inclination": 98.3319,
        "meta_ra_of_asc_node": 336.9788,
        "meta_arg_of_pericenter": 20.3942,
        "meta_mean_anomaly": 339.7797,
        "meta_ephemeris_type": 0,
        "meta_classification_type": "U",
        "meta_norad_cat_id": 31113,
        "meta_element_set_no": 999,
        "meta_rev_at_epoch": 97485,
        "meta_bstar": 4.9048462e-05,
        "meta_mean_motion_dot": 8.7e-07,
        "meta_mean_motion_ddot": 0,
        "tle_line1": "1 31113U 07010A   25352.95737327  .00000087  00000+0  49048-4 0  9990",
        "tle_line2": "2 31113  98.3319 336.9788 0013968  20.3942 339.7797 14.30967150974859"
      },
      "geometry": {
        "type": "Point",
        "coordinates": [
          -26.16916030985378,
          23.317558228152112
        ]
      }
    },
    {
      "type": "Feature",
      "properties": {
        "norad_id": 31598,
        "name": "COSMO-SKYMED 1",
        "group": "resource",
        "lat": -38.075176524877136,
        "lon": -7.337467245381306,
        "alt_km": 587.056344599262,
        "timestamp": "2025-12-19T10:50:00.848258+00:00",
        "meta_object_name": "COSMO-SKYMED 1",
        "meta_object_id": "2007-023A",
        "meta_epoch": "2025-12-18T22:37:19.084800",
        "meta_mean_motion": 14.9581266,
        "meta_eccentricity": 0.00015784,
        "meta_inclination": 97.8835,
        "meta_ra_of_asc_node": 178.3823,
        "meta_arg_of_pericenter": 86.3856,
        "meta_mean_anomaly": 273.7545,
        "meta_ephemeris_type": 0,
        "meta_classification_type": "U",
        "meta_norad_cat_id": 31598,
        "meta_element_set_no": 999,
        "meta_rev_at_epoch": 283,
        "meta_bstar": 0.00031630932,
        "meta_mean_motion_dot": 3.472e-05,
        "meta_mean_motion_ddot": 0,
        "tle_line1": "1 31598U 07023A   25352.94258200  .00003472  00000+0  31631-3 0  9997",
        "tle_line2": "2 31598  97.8835 178.3823 0001578  86.3856 273.7545 14.95812660  2835"
      },
      "geometry": {
        "type": "Point",
        "coordinates": [
          -7.337467245381306,
          -38.075176524877136
        ]
      }
    },
    {
      "type": "Feature",
      "properties": {
        "norad_id": 31698,
        "name": "TERRASAR-X",
        "group": "resource",
        "lat": 75.52198329304363,
        "lon": -31.694489299648964,
        "alt_km": 500.0050801105708,
        "timestamp": "2025-12-19T10:50:00.848275+00:00",
        "meta_object_name": "TERRASAR-X",
        "meta_object_id": "2007-026A",
        "meta_epoch": "2025-12-18T12:21:42.553440",
        "meta_mean_motion": 15.19151199,
        "meta_eccentricity": 0.00018406,
        "meta_inclination": 97.4454,
        "meta_ra_of_asc_node": 357.8116,
        "meta_arg_of_pericenter": 91.5233,
        "meta_mean_anomaly": 268.6213,
        "meta_ephemeris_type": 0,
        "meta_classification_type": "U",
        "meta_norad_cat_id": 31698,
        "meta_element_set_no": 999,
        "meta_rev_at_epoch": 2579,
        "meta_bstar": 3.8823467e-05,
        "meta_mean_motion_dot": 7.48e-06,
        "meta_mean_motion_ddot": 0,
        "tle_line1": "1 31698U 07026A   25352.51507585  .00000748  00000+0  38823-4 0  9991",
        "tle_line2": "2 31698  97.4454 357.8116 0001840  91.5233 268.6213 15.19151199 25792"
      },
      "geometry": {
        "type": "Point",
        "coordinates": [
          -31.694489299648964,
          75.52198329304363
        ]
      }
    },
    {
      "type": "Feature",
      "properties": {
        "norad_id": 32060,
        "name": "WORLDVIEW-1 (WV-1)",
        "group": "resource",
        "lat": -33.674945950182014,
        "lon": -74.11885867958534,
        "alt_km": 497.7594231823314,
        "timestamp": "2025-12-19T10:50:00.848287+00:00",
        "meta_object_name": "WORLDVIEW-1 (WV-1)",
        "meta_object_id": "2007-041A",
        "meta_epoch": "2025-12-18T21:17:54.513600",
        "meta_mean_motion": 15.24787661,
        "meta_eccentricity": 9.41e-05,
        "meta_inclination": 97.3841,
        "meta_ra_of_asc_node": 110.2821,
        "meta_arg_of_pericenter": 117.2019,
        "meta_mean_anomaly": 242.9315,
        "meta_ephemeris_type": 0,
        "meta_classification_type": "U",
        "meta_norad_cat_id": 32060,
        "meta_element_set_no": 999,
        "meta_rev_at_epoch": 1541,
        "meta_bstar": 0.00028990182,
        "meta_mean_motion_dot": 7.118e-05,
        "meta_mean_motion_ddot": 0,
        "tle_line1": "1 32060U 07041A   25352.88743650  .00007118  00000+0  28990-3 0  9998",
        "tle_line2": "2 32060  97.3841 110.2821 0000941 117.2019 242.9315 15.24787661 15419"
      },
      "geometry": {
        "type": "Point",
        "coordinates": [
          -74.11885867958534,
          -33.674945950182014
        ]
      }
    },
    {
      "type": "Feature",
      "properties": {
        "norad_id": 32289,
        "name": "YAOGAN-3",
        "group": "resource",
        "lat": -73.13365895301892,
        "lon": 47.03374385375867,
        "alt_km": 606.3302875822155,
        "timestamp": "2025-12-19T10:50:00.848297+00:00",
        "meta_object_name": "YAOGAN-3",
        "meta_object_id": "2007-055A",
        "meta_epoch": "2025-12-18T23:53:12.903072",
        "meta_mean_motion": 14.89887164,
        "meta_eccentricity": 0.00012592,
        "meta_inclination": 97.8363,
        "meta_ra_of_asc_node": 19.5647,
        "meta_arg_of_pericenter": 73.0574,
        "meta_mean_anomaly": 287.0781,
        "meta_ephemeris_type": 0,
        "meta_classification_type": "U",
        "meta_norad_cat_id": 32289,
        "meta_element_set_no": 999,
        "meta_rev_at_epoch": 97902,
        "meta_bstar": 0.00015253105,
        "meta_mean_motion_dot": 1.411e-05,
        "meta_mean_motion_ddot": 0,
        "tle_line1": "1 32289U 07055A   25352.99528823  .00001411  00000+0  15253-3 0  9999",
        "tle_line2": "2 32289  97.8363  19.5647 0001259  73.0574 287.0781 14.89887164979023"
      },
      "geometry": {
        "type": "Point",
        "coordinates": [
          47.03374385375867,
          -73.13365895301892
        ]
      }
    }
  ]
}